{
  "type": "FeatureCollection",
  "features": [
    {
      "type": "Feature",
      "properties": { "area_name": "Blatchford Redevelopment Site" },
      "geometry": {
        "type": "Polygon",
        "coordinates": [[
          [-113.5010, 53.5720],
          [-113.4870, 53.5720],
          [-113.4870, 53.5800],
          [-113.5010, 53.5800],
          [-113.5010, 53.5720]
        ]]
      }
    },
    {
      "type": "Feature",
      "properties": { "area_name": "Refinery Row / Industrial East" },
      "geometry": {
        "type": "Polygon",
        "coordinates": [[
          [-113.3900, 53.5450],
          [-113.3600, 53.5450],
          [-113.3600, 53.5620],
          [-113.3900, 53.5620],
          [-113.3900, 53.5450]
        ]]
      }
    }
  ]
}
