{
  "type": "FeatureCollection",
  "features": [
    { "type": "Feature", "properties": { "number": 1, "name": "Millwoods Town Centre", "gla_sqft": 411058 }, "geometry": { "type": "Point", "coordinates": [-113.4276, 53.4595] } },
    { "type": "Feature", "properties": { "number": 2, "name": "Millbourne Market Mall", "gla_sqft": 264000 }, "geometry": { "type": "Point", "coordinates": [-113.4650, 53.4990] } },
    { "type": "Feature", "properties": { "number": 3, "name": "Southgate Centre", "gla_sqft": 941825 }, "geometry": { "type": "Point", "coordinates": [-113.5222, 53.4869] } },
    { "type": "Feature", "properties": { "number": 4, "name": "Bonnie Doon Shopping Centre", "gla_sqft": 494311 }, "geometry": { "type": "Point", "coordinates": [-113.4666, 53.5233] } },
    { "type": "Feature", "properties": { "number": 5, "name": "Meadowlark Shopping Centre", "gla_sqft": 301175 }, "geometry": { "type": "Point", "coordinates": [-113.6103, 53.5424] } },
    { "type": "Feature", "properties": { "number": 6, "name": "West Edmonton Mall", "gla_sqft": 3800000 }, "geometry": { "type": "Point", "coordinates": [-113.6247, 53.5225] } },
    { "type": "Feature", "properties": { "number": 7, "name": "Sherwood Park Mall", "gla_sqft": 430000 }, "geometry": { "type": "Point", "coordinates": [-113.3183, 53.5205] } },
    { "type": "Feature", "properties": { "number": 8, "name": "Capilano Shopping Centre", "gla_sqft": 340390 }, "geometry": { "type": "Point", "coordinates": [-113.4381, 53.5391] } },
    { "type": "Feature", "properties": { "number": 9, "name": "Kingsway Mall", "gla_sqft": 977880 }, "geometry": { "type": "Point", "coordinates": [-113.5003, 53.5665] } },
    { "type": "Feature", "properties": { "number": 10, "name": "Westmount Centre", "gla_sqft": 496742 }, "geometry": { "type": "Point", "coordinates": [-113.5443, 53.5546] } },
    { "type": "Feature", "properties": { "number": 11, "name": "Riverview Crossing", "gla_sqft": 185000 }, "geometry": { "type": "Point", "coordinates": [-113.4234, 53.4600] } },
    { "type": "Feature", "properties": { "number": 12, "name": "Londonderry Mall", "gla_sqft": 776749 }, "geometry": { "type": "Point", "coordinates": [-113.4796, 53.5896] } },
    { "type": "Feature", "properties": { "number": 13, "name": "Northgate Centre", "gla_sqft": 490497 }, "geometry": { "type": "Point", "coordinates": [-113.4989, 53.5892] } },
    { "type": "Feature", "properties": { "number": 14, "name": "Edmonton City Centre", "gla_sqft": 727167 }, "geometry": { "type": "Point", "coordinates": [-113.4952, 53.5444] } },
    { "type": "Feature", "properties": { "number": 15, "name": "St. Albert Centre", "gla_sqft": 373000 }, "geometry": { "type": "Point", "coordinates": [-113.6280, 53.6328] } }
  ]
}
