{
  "type": "FeatureCollection",
  "features": [
    {
      "type": "Feature",
      "properties": { "line_name": "Capital Line", "status": "current" },
      "geometry": {
        "type": "LineString",
        "coordinates": [
          [-113.4909, 53.6120],
          [-113.4909, 53.5461],
          [-113.4950, 53.4950],
          [-113.4990, 53.4550]
        ]
      }
    },
    {
      "type": "Feature",
      "properties": { "line_name": "Valley Line West", "status": "future" },
      "geometry": {
        "type": "LineString",
        "coordinates": [
          [-113.5461, 53.5350],
          [-113.5100, 53.5390],
          [-113.4909, 53.5461]
        ]
      }
    }
  ]
}
