{
  "type": "FeatureCollection",
  "features": [
    {
      "type": "Feature",
      "properties": { "zone_name": "Whyte Avenue Retail District", "tier": "major" },
      "geometry": {
        "type": "Polygon",
        "coordinates": [[
          [-113.5220, 53.5180],
          [-113.5000, 53.5180],
          [-113.5000, 53.5260],
          [-113.5220, 53.5260],
          [-113.5220, 53.5180]
        ]]
      }
    },
    {
      "type": "Feature",
      "properties": { "zone_name": "South Edmonton Common", "tier": "major" },
      "geometry": {
        "type": "Polygon",
        "coordinates": [[
          [-113.5050, 53.4600],
          [-113.4750, 53.4600],
          [-113.4750, 53.4720],
          [-113.5050, 53.4720],
          [-113.5050, 53.4600]
        ]]
      }
    },
    {
      "type": "Feature",
      "properties": { "zone_name": "Bonnie Doon Secondary Node", "tier": "secondary" },
      "geometry": {
        "type": "Polygon",
        "coordinates": [[
          [-113.4830, 53.5520],
          [-113.4700, 53.5520],
          [-113.4700, 53.5600],
          [-113.4830, 53.5600],
          [-113.4830, 53.5520]
        ]]
      }
    }
  ]
}
