{
  "type": "FeatureCollection",
  "features": [
    {
      "type": "Feature",
      "geometry": { "type": "Point", "coordinates": [-113.4938, 53.5461] },
      "properties": {
        "name": "Save-On-Foods South Edmonton",
        "category": "grocery",
        "address": "1717 99 St NW, Edmonton, AB",
        "status": "open",
        "source": "curated-excel",
        "last_updated": "2026-06-01"
      }
    },
    {
      "type": "Feature",
      "geometry": { "type": "Point", "coordinates": [-113.5102, 53.5232] },
      "properties": {
        "name": "Shoppers Drug Mart Whyte Ave",
        "category": "pharmacy",
        "address": "8210 109 St NW, Edmonton, AB",
        "status": "open",
        "source": "curated-excel",
        "last_updated": "2026-06-01"
      }
    },
    {
      "type": "Feature",
      "geometry": { "type": "Point", "coordinates": [-113.4765, 53.5560] },
      "properties": {
        "name": "GoodLife Fitness Bonnie Doon",
        "category": "fitness",
        "address": "9631 82 Ave NW, Edmonton, AB",
        "status": "open",
        "source": "curated-excel",
        "last_updated": "2026-06-01"
      }
    },
    {
      "type": "Feature",
      "geometry": { "type": "Point", "coordinates": [-113.5589, 53.5058] },
      "properties": {
        "name": "MEC Edmonton (closed)",
        "category": "specialty",
        "address": "6103 99 St NW, Edmonton, AB",
        "status": "closed",
        "source": "curated-excel",
        "last_updated": "2026-05-15"
      }
    },
    {
      "type": "Feature",
      "geometry": { "type": "Point", "coordinates": [-113.4406, 53.4761] },
      "properties": {
        "name": "Sobeys Ellerslie",
        "category": "grocery",
        "address": "1978 Ellerslie Rd SW, Edmonton, AB",
        "status": "open",
        "source": "curated-excel",
        "last_updated": "2026-06-01"
      }
    },
    {
      "type": "Feature",
      "geometry": { "type": "Point", "coordinates": [-113.6247, 53.5108] },
      "properties": {
        "name": "Rexall West Edmonton Mall",
        "category": "pharmacy",
        "address": "8882 170 St NW, Edmonton, AB",
        "status": "open",
        "source": "curated-excel",
        "last_updated": "2026-06-01"
      }
    }
  ]
}
