{
  "type": "FeatureCollection",
  "features": [
    {
      "type": "Feature",
      "geometry": { "type": "Point", "coordinates": [-113.4938, 53.5300] },
      "properties": {
        "location": "99 St NW @ 51 Ave NW",
        "aadt": 28500,
        "year": 2025,
        "source": "City of Edmonton Open Data"
      }
    },
    {
      "type": "Feature",
      "geometry": { "type": "Point", "coordinates": [-113.5102, 53.5232] },
      "properties": {
        "location": "Whyte Ave @ 109 St NW",
        "aadt": 21300,
        "year": 2025,
        "source": "City of Edmonton Open Data"
      }
    },
    {
      "type": "Feature",
      "geometry": { "type": "Point", "coordinates": [-113.4900, 53.4650] },
      "properties": {
        "location": "Gateway Blvd @ Ellerslie Rd",
        "aadt": 41750,
        "year": 2025,
        "source": "Alberta Transportation"
      }
    }
  ]
}
